NORAD_CAT_ID,OBJECT_NAME,OBJECT_TYPE,EPOCH,MEAN_MOTION,ECCENTRICITY,INCLINATION,RA_OF_ASC_NODE,ARG_OF_PERICENTER,MEAN_ANOMALY,BSTAR,MEAN_MOTION_DOT,MEAN_MOTION_DDOT,TLE_LINE0,TLE_LINE1,TLE_LINE2,SEMIMAJOR_AXIS,PERIOD,APOGEE,PERIGEE,DECAYED
52622.0,STARLINK-4008,PAYLOAD,2023-01-25 07:20:28,15.08842816,0.0001710999999999,53.2177,359.0185,95.5199,264.5988,0.00025373,3.753e-05,0.0,0 STARLINK-4008,1 52622U 22052AA  23025.30588459  .00003753  00000-0  25373-3 0  9993,2 52622  53.2177 359.0185 0001711  95.5199 264.5988 15.08842816 39156,6917.871999999999,95.437,540.92,538.553,0.0
52622.0,STARLINK-4008,PAYLOAD,2023-01-25 15:17:24,15.08841711,0.0001435,53.2168,357.5324,94.9888,265.1268,0.00017361,2.476e-05,0.0,0 STARLINK-4008,1 52622U 22052AA  23025.63708463  .00002476  00000-0  17361-3 0  9997,2 52622  53.2168 357.5324 0001435  94.9888 265.1268 15.08841711 38829,6917.875,95.437,540.7330000000001,538.747,0.0
52622.0,STARLINK-4008,PAYLOAD,2023-01-26 04:00:29,15.08840769,0.0001035,53.2162,355.1527,97.1281,262.9829,0.00016666,2.366e-05,0.0,0 STARLINK-4008,1 52622U 22052AA  23026.16700431  .00002366  00000-0  16666-3 0  9998,2 52622  53.2162 355.1527 0001035  97.1281 262.9829 15.08840769 39281,6917.878000000001,95.438,540.4590000000001,539.0269999999999,0.0
52622.0,STARLINK-4008,PAYLOAD,2023-01-26 07:11:15,15.08848527,0.0001344,53.2157,354.5575,97.2681,262.8464,0.00022391,3.278e-05,0.0,0 STARLINK-4008,1 52622U 22052AA  23026.29948126  .00003278  00000-0  22391-3 0  9992,2 52622  53.2157 354.5575 0001344  97.2681 262.8464 15.08848527 38923,6917.854,95.437,540.649,538.79,0.0
52622.0,STARLINK-4008,PAYLOAD,2023-01-27 02:15:53,15.08846664,0.000135,53.2162,350.9905,84.2366,275.878,0.0002624,3.891e-05,0.0,0 STARLINK-4008,1 52622U 22052AA  23027.09436453  .00003891  00000-0  26240-3 0  9994,2 52622  53.2162 350.9905 0001350  84.2366 275.8780 15.08846664 39420,6917.86,95.437,540.659,538.7909999999999,0.0
52622.0,STARLINK-4008,PAYLOAD,2023-01-27 07:02:02,15.08850156,0.0001314,53.2158,350.0973,90.1201,269.9942,0.00035932,5.437e-05,0.0,0 STARLINK-4008,1 52622U 22052AA  23027.29308251  .00005437  00000-0  35932-3 0  9996,2 52622  53.2158 350.0973 0001314  90.1201 269.9942 15.08850156 39071,6917.849,95.437,540.623,538.805,0.0
52622.0,STARLINK-4008,PAYLOAD,2023-01-28 03:42:03,15.08846255,0.0001087,53.2164,346.2314,88.0807,272.031,0.00025131,3.715e-05,0.0,0 STARLINK-4008,1 52622U 22052AA  23028.15420433  .00003715  00000-0  25131-3 0  9996,2 52622  53.2164 346.2314 0001087  88.0807 272.0310 15.08846255 39584,6917.861,95.437,540.4780000000001,538.974,0.0
52622.0,STARLINK-4008,PAYLOAD,2023-01-28 06:52:49,15.08848473,0.0001223,53.2164,345.6367,88.54,271.5732,0.00021468,3.131e-05,0.0,0 STARLINK-4008,1 52622U 22052AA  23028.28668148  .00003131  00000-0  21468-3 0  9998,2 52622  53.2164 345.6367 0001223  88.5400 271.5732 15.08848473 39228,6917.854,95.437,540.566,538.873,0.0
52622.0,STARLINK-4008,PAYLOAD,2023-01-28 21:11:17,15.08843249,0.0001203,53.2161,342.9608,86.693,273.4199,0.00011529,1.548e-05,0.0,0 STARLINK-4008,1 52622U 22052AA  23028.88284441  .00001548  00000-0  11529-3 0  9991,2 52622  53.2161 342.9608 0001203  86.6930 273.4199 15.08843249 39312,6917.87,95.437,540.568,538.903,0.0
52622.0,STARLINK-4008,PAYLOAD,2023-01-29 03:32:50,15.08847102,0.000123,53.2162,341.7724,77.6363,282.4767,0.00017842,2.553e-05,0.0,0 STARLINK-4008,1 52622U 22052AA  23029.14780442  .00002553  00000-0  17842-3 0  9994,2 52622  53.2162 341.7724 0001230  77.6363 282.4767 15.08847102 39738,6917.859,95.437,540.575,538.873,0.0
52622.0,STARLINK-4008,PAYLOAD,2023-01-29 21:02:05,15.08835496,8.7e-05,53.2162,338.5003,70.3166,289.792,-3.2812e-05,-8.1e-06,0.0,0 STARLINK-4008,1 52622U 22052AA  23029.87644691 -.00000810  00000-0 -32812-4 0  9990,2 52622  53.2162 338.5003 0000870  70.3166 289.7920 15.08835496 39466,6917.894,95.438,540.361,539.157,0.0
52622.0,STARLINK-4008,PAYLOAD,2023-01-30 03:23:37,15.08845718,0.000112,53.2162,337.3108,82.084,278.0279,0.00015893,2.243e-05,0.0,0 STARLINK-4008,1 52622U 22052AA  23030.14140311  .00002243  00000-0  15893-3 0  9991,2 52622  53.2162 337.3108 0001120  82.0840 278.0279 15.08845718 39889,6917.863,95.437,540.503,538.953,0.0
52622.0,STARLINK-4008,PAYLOAD,2023-01-30 06:34:23,15.08848986,0.0001233,53.2163,336.7168,86.9351,273.1782,0.0002248,3.292e-05,0.0,0 STARLINK-4008,1 52622U 22052AA  23030.27388200  .00003292  00000-0  22480-3 0  9991,2 52622  53.2163 336.7168 0001233  86.9351 273.1782 15.08848986 39520,6917.853,95.437,540.571,538.865,0.0
52622.0,STARLINK-4008,PAYLOAD,2023-01-30 20:52:52,15.08836734,0.0001313,53.2154,334.0406,86.9201,273.1941,-6.9314e-06,-3.98e-06,0.0,0 STARLINK-4008,1 52622U 22052AA  23030.87004678 -.00000398  00000-0 -69314-5 0  9996,2 52622  53.2154 334.0406 0001313  86.9201 273.1941 15.08836734 39614,6917.89,95.438,540.664,538.847,0.0
52622.0,STARLINK-4008,PAYLOAD,2023-01-31 03:14:24,15.08846645,0.0001145,53.2161,332.8516,91.8993,268.213,0.00019905,2.882e-05,0.0,0 STARLINK-4008,1 52622U 22052AA  23031.13500209  .00002882  00000-0  19905-3 0  9994,2 52622  53.2161 332.8516 0001145  91.8993 268.2130 15.08846645 39657,6917.86,95.437,540.517,538.933,0.0
52622.0,STARLINK-4008,PAYLOAD,2023-01-31 17:32:52,15.08842371,0.0001108,53.2162,330.175,94.5795,265.5324,0.00010313,1.354e-05,0.0,0 STARLINK-4008,1 52622U 22052AA  23031.73116324  .00001354  00000-0  10313-3 0  9998,2 52622  53.2162 330.1750 0001108  94.5795 265.5324 15.08842371 40129,6917.873,95.437,540.505,538.972,0.0
52622.0,STARLINK-4008,PAYLOAD,2023-01-31 20:43:38,15.08843562,0.0001151,53.2165,329.581,97.8011,262.3112,9.7715e-05,1.268e-05,0.0,0 STARLINK-4008,1 52622U 22052AA  23031.86364306  .00001268  00000-0  97715-4 0  9993,2 52622  53.2165 329.5810 0001151  97.8011 262.3112 15.08843562 39767,6917.87,95.437,540.531,538.938,0.0
52622.0,STARLINK-4008,PAYLOAD,2023-02-01 06:15:57,15.08855717,0.0001095,53.2161,327.796,94.1729,265.9389,0.00031184,4.681e-05,0.0,0 STARLINK-4008,1 52622U 22052AA  23032.26107687  .00004681  00000-0  31184-3 0  9994,2 52622  53.2161 327.7960 0001095  94.1729 265.9389 15.08855717 40203,6917.832,95.437,540.455,538.94,0.0
52622.0,STARLINK-4008,PAYLOAD,2023-02-02 02:55:58,15.08844668,0.0001315,53.2163,323.9284,103.2732,256.8407,0.00016845,2.394e-05,0.0,0 STARLINK-4008,1 52622U 22052AA  23033.12220147  .00002394  00000-0  16845-3 0  9993,2 52622  53.2163 323.9284 0001315 103.2732 256.8407 15.08844668 40330,6917.866,95.437,540.641,538.821,0.0
52622.0,STARLINK-4008,PAYLOAD,2023-02-02 04:31:21,15.08848743,0.0001311,53.2162,323.6309,100.6968,259.4171,0.00029504,4.412e-05,0.0,0 STARLINK-4008,1 52622U 22052AA  23033.18844097  .00004412  00000-0  29504-3 0  9994,2 52622  53.2162 323.6309 0001311 100.6968 259.4171 15.08848743 39964,6917.854,95.437,540.626,538.812,0.0
52622.0,STARLINK-4008,PAYLOAD,2023-02-03 04:22:08,15.08857495,0.0001419,53.2156,319.1711,98.0862,262.0291,0.00060827,9.41e-05,0.0,0 STARLINK-4008,1 52622U 22052AA  23034.18203826  .00009410  00000-0  60827-3 0  9990,2 52622  53.2156 319.1711 0001419  98.0862 262.0291 15.08857495 40493,6917.827,95.436,540.674,538.71,0.0
52622.0,STARLINK-4008,PAYLOAD,2023-02-03 18:40:36,15.088386,0.0001551,53.2162,316.4944,97.2174,262.8994,6.3091e-05,7.16e-06,0.0,0 STARLINK-4008,1 52622U 22052AA  23034.77820429  .00000716  00000-0  63091-4 0  9996,2 52622  53.2162 316.4944 0001551  97.2174 262.8994 15.08838600 40587,6917.885,95.438,540.823,538.677,0.0
52622.0,STARLINK-4008,PAYLOAD,2023-02-04 04:12:55,15.08842884,0.000158,53.2154,314.7121,86.1372,273.9801,0.00019325,2.789e-05,0.0,0 STARLINK-4008,1 52622U 22052AA  23035.17564463  .00002789  00000-0  19325-3 0  9996,2 52622  53.2154 314.7121 0001580  86.1372 273.9801 15.08842884 40269,6917.872,95.437,540.83,538.644,0.0
52622.0,STARLINK-4008,PAYLOAD,2023-02-04 21:42:10,15.08846299,0.0001617,53.2147,311.4413,82.1852,277.9323,0.00028265,4.214e-05,0.0,0 STARLINK-4008,1 52622U 22052AA  23035.90428424  .00004214  00000-0  28265-3 0  9991,2 52622  53.2147 311.4413 0001617  82.1852 277.9323 15.08846299 40378,6917.861,95.437,540.845,538.608,0.0
52622.0,STARLINK-4008,PAYLOAD,2023-02-05 00:52:56,15.08851628,0.0001287,53.2151,310.8451,85.5971,274.5168,0.00041602,6.341e-05,0.0,0 STARLINK-4008,1 52622U 22052AA  23036.03676213  .00006341  00000-0  41602-3 0  9990,2 52622  53.2151 310.8451 0001287  85.5971 274.5168 15.08851628 40776,6917.845,95.437,540.6,538.82,0.0
52622.0,STARLINK-4008,PAYLOAD,2023-02-05 04:03:42,15.08855032,0.0001342,53.2155,310.251,85.3841,274.7304,0.00049937,7.672e-05,0.0,0 STARLINK-4008,1 52622U 22052AA  23036.16924102  .00007672  00000-0  49937-3 0  9994,2 52622  53.2155 310.2510 0001342  85.3841 274.7304 15.08855032 40414,6917.834,95.437,540.628,538.771,0.0
52622.0,STARLINK-4008,PAYLOAD,2023-02-05 21:32:57,15.08835387,0.0001342,53.215,306.9794,108.9824,251.1314,4.852e-06,-2.11e-06,0.0,0 STARLINK-4008,1 52622U 22052AA  23036.89788806 -.00000211  00000-0  48520-5 0  9995,2 52622  53.2150 306.9794 0001342 108.9824 251.1314 15.08835387 40521,6917.894,95.438,540.688,538.831,0.0
52622.0,STARLINK-4008,PAYLOAD,2023-02-06 00:43:43,15.08837032,0.0001103,53.2152,306.3859,86.4152,273.6966,0.00014381,2.001e-05,0.0,0 STARLINK-4008,1 52622U 22052AA  23037.03036931  .00002001  00000-0  14381-3 0  9991,2 52622  53.2152 306.3859 0001103  86.4152 273.6966 15.08837032 40923,6917.889,95.438,540.518,538.991,0.0
52622.0,STARLINK-4008,PAYLOAD,2023-02-06 05:29:53,15.08845757,0.000121,53.2158,305.4941,90.0597,270.0534,0.00044921,6.87e-05,0.0,0 STARLINK-4008,1 52622U 22052AA  23037.22908833  .00006870  00000-0  44921-3 0  9992,2 52622  53.2158 305.4941 0001210  90.0597 270.0534 15.08845757 40570,6917.863,95.437,540.565,538.891,0.0
52622.0,STARLINK-4008,PAYLOAD,2023-02-06 21:23:44,15.08853879,0.0001185,53.2154,302.5216,94.8307,265.2821,0.00085817,0.00013401,0.0,0 STARLINK-4008,1 52622U 22052AA  23037.89148731  .00013401  00000-0  85817-3 0  9995,2 52622  53.2154 302.5216 0001185  94.8307 265.2821 15.08853879 40671,6917.838,95.437,540.523,538.883,0.0
